{
  "type": "FeatureCollection",
  "features": [
    {
      "type": "Feature",
      "properties": {
        "norad_id": 34079,
        "name": "IRIDIUM 33 DEB",
        "group": "iridium-33-debris",
        "lat": -72.79720608256122,
        "lon": -163.39420935383862,
        "alt_km": 624.6984767181448,
        "timestamp": "2025-12-21T05:44:51.972474+00:00",
        "meta_object_name": "IRIDIUM 33 DEB",
        "meta_object_id": "1997-051CN",
        "meta_epoch": "2025-12-20T07:37:00.373152",
        "meta_mean_motion": 14.83707217,
        "meta_eccentricity": 0.00047155,
        "meta_inclination": 86.3768,
        "meta_ra_of_asc_node": 5.2156,
        "meta_arg_of_pericenter": 341.2972,
        "meta_mean_anomaly": 29.7285,
        "meta_ephemeris_type": 0,
        "meta_classification_type": "U",
        "meta_norad_cat_id": 34079,
        "meta_element_set_no": 999,
        "meta_rev_at_epoch": 89090,
        "meta_bstar": 0.0011458545,
        "meta_mean_motion_dot": 9.499e-05,
        "meta_mean_motion_ddot": 0,
        "tle_line1": "1 34079U 97051CN  25354.31736543  .00009499  00000+0  11459-2 0  9998",
        "tle_line2": "2 34079  86.3768   5.2156 0004715 341.2972  29.7285 14.83707217890906"
      },
      "geometry": {
        "type": "Point",
        "coordinates": [
          -163.39420935383862,
          -72.79720608256122
        ]
      }
    },
    {
      "type": "Feature",
      "properties": {
        "norad_id": 34088,
        "name": "IRIDIUM 33 DEB",
        "group": "iridium-33-debris",
        "lat": -47.17079365201579,
        "lon": -149.27066851533314,
        "alt_km": 598.4763944516844,
        "timestamp": "2025-12-21T05:44:51.972485+00:00",
        "meta_object_name": "IRIDIUM 33 DEB",
        "meta_object_id": "1997-051CX",
        "meta_epoch": "2025-12-20T21:13:03.255744",
        "meta_mean_motion": 14.91717311,
        "meta_eccentricity": 0.00065952,
        "meta_inclination": 86.384,
        "meta_ra_of_asc_node": 26.9809,
        "meta_arg_of_pericenter": 150.9529,
        "meta_mean_anomaly": 328.7455,
        "meta_ephemeris_type": 0,
        "meta_classification_type": "U",
        "meta_norad_cat_id": 34088,
        "meta_element_set_no": 999,
        "meta_rev_at_epoch": 88863,
        "meta_bstar": 0.0014513836,
        "meta_mean_motion_dot": 0.00014649,
        "meta_mean_motion_ddot": 0,
        "tle_line1": "1 34088U 97051CX  25354.88406546  .00014649  00000+0  14514-2 0  9995",
        "tle_line2": "2 34088  86.3840  26.9809 0006595 150.9529 328.7455 14.91717311888636"
      },
      "geometry": {
        "type": "Point",
        "coordinates": [
          -149.27066851533314,
          -47.17079365201579
        ]
      }
    },
    {
      "type": "Feature",
      "properties": {
        "norad_id": 34091,
        "name": "IRIDIUM 33 DEB",
        "group": "iridium-33-debris",
        "lat": 55.813358744222135,
        "lon": -122.46480526353301,
        "alt_km": 634.4773689018584,
        "timestamp": "2025-12-21T05:44:51.972495+00:00",
        "meta_object_name": "IRIDIUM 33 DEB",
        "meta_object_id": "1997-051DA",
        "meta_epoch": "2025-12-20T22:42:25.956864",
        "meta_mean_motion": 14.82364714,
        "meta_eccentricity": 0.00340722,
        "meta_inclination": 86.3416,
        "meta_ra_of_asc_node": 63.0745,
        "meta_arg_of_pericenter": 263.6319,
        "meta_mean_anomaly": 96.1023,
        "meta_ephemeris_type": 0,
        "meta_classification_type": "U",
        "meta_norad_cat_id": 34091,
        "meta_element_set_no": 999,
        "meta_rev_at_epoch": 87988,
        "meta_bstar": 0.0029658687,
        "meta_mean_motion_dot": 0.00024051,
        "meta_mean_motion_ddot": 0,
        "tle_line1": "1 34091U 97051DA  25354.94613376  .00024051  00000+0  29659-2 0  9991",
        "tle_line2": "2 34091  86.3416  63.0745 0034072 263.6319  96.1023 14.82364714879889"
      },
      "geometry": {
        "type": "Point",
        "coordinates": [
          -122.46480526353301,
          55.813358744222135
        ]
      }
    },
    {
      "type": "Feature",
      "properties": {
        "norad_id": 34097,
        "name": "IRIDIUM 33 DEB",
        "group": "iridium-33-debris",
        "lat": 6.927054925781141,
        "lon": -1.8812231388540022,
        "alt_km": 728.3420777696147,
        "timestamp": "2025-12-21T05:44:51.972506+00:00",
        "meta_object_name": "IRIDIUM 33 DEB",
        "meta_object_id": "1997-051DG",
        "meta_epoch": "2025-12-20T11:18:18.737280",
        "meta_mean_motion": 14.34833925,
        "meta_eccentricity": 0.00817307,
        "meta_inclination": 86.2,
        "meta_ra_of_asc_node": 357.9952,
        "meta_arg_of_pericenter": 336.8917,
        "meta_mean_anomaly": 22.861,
        "meta_ephemeris_type": 0,
        "meta_classification_type": "U",
        "meta_norad_cat_id": 34097,
        "meta_element_set_no": 999,
        "meta_rev_at_epoch": 87230,
        "meta_bstar": 0.0010165837,
        "meta_mean_motion_dot": 3.014e-05,
        "meta_mean_motion_ddot": 0,
        "tle_line1": "1 34097U 97051DG  25354.47105020  .00003014  00000+0  10166-2 0  9996",
        "tle_line2": "2 34097  86.2000 357.9952 0081730 336.8917  22.8610 14.34833925872308"
      },
      "geometry": {
        "type": "Point",
        "coordinates": [
          -1.8812231388540022,
          6.927054925781141
        ]
      }
    },
    {
      "type": "Feature",
      "properties": {
        "norad_id": 34145,
        "name": "IRIDIUM 33 DEB",
        "group": "iridium-33-debris",
        "lat": 33.97767878837317,
        "lon": 146.18096582021315,
        "alt_km": 740.9301088738221,
        "timestamp": "2025-12-21T05:44:51.972516+00:00",
        "meta_object_name": "IRIDIUM 33 DEB",
        "meta_object_id": "1997-051DY",
        "meta_epoch": "2025-12-20T22:25:09.622560",
        "meta_mean_motion": 14.42341127,
        "meta_eccentricity": 0.0055711,
        "meta_inclination": 86.2115,
        "meta_ra_of_asc_node": 328.8764,
        "meta_arg_of_pericenter": 67.7948,
        "meta_mean_anomaly": 292.915,
        "meta_ephemeris_type": 0,
        "meta_classification_type": "U",
        "meta_norad_cat_id": 34145,
        "meta_element_set_no": 999,
        "meta_rev_at_epoch": 87756,
        "meta_bstar": 0.00076758524,
        "meta_mean_motion_dot": 2.602e-05,
        "meta_mean_motion_ddot": 0,
        "tle_line1": "1 34145U 97051DY  25354.93413915  .00002602  00000+0  76759-3 0  9999",
        "tle_line2": "2 34145  86.2115 328.8764 0055711  67.7948 292.9150 14.42341127877560"
      },
      "geometry": {
        "type": "Point",
        "coordinates": [
          146.18096582021315,
          33.97767878837317
        ]
      }
    },
    {
      "type": "Feature",
      "properties": {
        "norad_id": 34146,
        "name": "IRIDIUM 33 DEB",
        "group": "iridium-33-debris",
        "lat": -10.629208955278896,
        "lon": -14.653795344995286,
        "alt_km": 750.1555419900233,
        "timestamp": "2025-12-21T05:44:51.972527+00:00",
        "meta_object_name": "IRIDIUM 33 DEB",
        "meta_object_id": "1997-051DZ",
        "meta_epoch": "2025-12-20T10:36:37.304352",
        "meta_mean_motion": 14.49095208,
        "meta_eccentricity": 0.00262607,
        "meta_inclination": 86.283,
        "meta_ra_of_asc_node": 346.3974,
        "meta_arg_of_pericenter": 194.7947,
        "meta_mean_anomaly": 317.4256,
        "meta_ephemeris_type": 0,
        "meta_classification_type": "U",
        "meta_norad_cat_id": 34146,
        "meta_element_set_no": 999,
        "meta_rev_at_epoch": 88218,
        "meta_bstar": 0.00059944717,
        "meta_mean_motion_dot": 2.307e-05,
        "meta_mean_motion_ddot": 0,
        "tle_line1": "1 34146U 97051DZ  25354.44209843  .00002307  00000+0  59945-3 0  9999",
        "tle_line2": "2 34146  86.2830 346.3974 0026260 194.7947 317.4256 14.49095208882187"
      },
      "geometry": {
        "type": "Point",
        "coordinates": [
          -14.653795344995286,
          -10.629208955278896
        ]
      }
    },
    {
      "type": "Feature",
      "properties": {
        "norad_id": 34159,
        "name": "IRIDIUM 33 DEB",
        "group": "iridium-33-debris",
        "lat": 78.38302630155592,
        "lon": -153.47273132478907,
        "alt_km": 773.2956823005952,
        "timestamp": "2025-12-21T05:44:51.972538+00:00",
        "meta_object_name": "IRIDIUM 33 DEB",
        "meta_object_id": "1997-051EN",
        "meta_epoch": "2025-12-20T15:55:20.560224",
        "meta_mean_motion": 14.38511056,
        "meta_eccentricity": 0.00260401,
        "meta_inclination": 86.3499,
        "meta_ra_of_asc_node": 44.8627,
        "meta_arg_of_pericenter": 259.811,
        "meta_mean_anomaly": 100.0151,
        "meta_ephemeris_type": 0,
        "meta_classification_type": "U",
        "meta_norad_cat_id": 34159,
        "meta_element_set_no": 999,
        "meta_rev_at_epoch": 88073,
        "meta_bstar": 0.00025986701,
        "meta_mean_motion_dot": 8.16e-06,
        "meta_mean_motion_ddot": 0,
        "tle_line1": "1 34159U 97051EN  25354.66343241  .00000816  00000+0  25987-3 0  9990",
        "tle_line2": "2 34159  86.3499  44.8627 0026040 259.8110 100.0151 14.38511056880730"
      },
      "geometry": {
        "type": "Point",
        "coordinates": [
          -153.47273132478907,
          78.38302630155592
        ]
      }
    }
  ]
}